{
"type": "FeatureCollection",
"name": "convex_hull",
"crs": { "type": "name", "properties": { "name": "urn:ogc:def:crs:OGC:1.3:CRS84" } },
"features": [
{ "type": "Feature", "properties": { "id": "buildings_convex_hull" }, "geometry": { "type": "Polygon", "coordinates": [ [ [ 34.789751089898004, 30.619227539844786 ], [ 34.788844988338319, 30.618936233776171 ], [ 34.787914722074774, 30.618735027561115 ], [ 34.786969227286505, 30.618625853995471 ], [ 34.786017586438554, 30.618609761805377 ], [ 34.78506894103527, 30.618686905573124 ], [ 34.784132403806638, 30.618856544252246 ], [ 34.783216971170965, 30.619117048286039 ], [ 34.782331436814914, 30.619465915261159 ], [ 34.781484307220936, 30.619899793945905 ], [ 34.780683719953622, 30.620414516482313 ], [ 34.779937365489907, 30.621005138422788 ], [ 34.779252413344004, 30.62166598622667 ], [ 34.77863544319672, 30.622390711760531 ], [ 34.688260033563282, 30.739748319199858 ], [ 34.687722838886458, 30.740520576991909 ], [ 34.68726288726468, 30.741341189399694 ], [ 34.687132777584509, 30.74160221436745 ], [ 34.686752827312603, 30.742467554400875 ], [ 34.68645879215812, 30.743365729723681 ], [ 34.686253457025998, 30.744288233418029 ], [ 34.686138766713725, 30.745226328143971 ], [ 34.663833265674441, 31.050341250107429 ], [ 34.663808869819576, 31.051217101116286 ], [ 34.663863518083367, 31.052091585944464 ], [ 34.694555089149326, 31.336388582512388 ], [ 34.694655217378305, 31.337081163562971 ], [ 34.695443283950205, 31.341421385757457 ], [ 34.695642528821665, 31.342289883201317 ], [ 34.695920542540996, 31.343136461431993 ], [ 34.696274984366298, 31.343953992667647 ], [ 34.696702870067746, 31.344735593688174 ], [ 34.751743447904133, 31.435161880166962 ], [ 34.752330091829862, 31.436018869295459 ], [ 34.753004901152998, 31.436808308235065 ], [ 34.753760157810824, 31.437521167858534 ], [ 34.754587223632441, 31.438149294906726 ], [ 34.755476639136987, 31.43868550524067 ], [ 34.757471978892312, 31.43974732545059 ], [ 34.757979383356492, 31.43999864082765 ], [ 34.76224438405216, 31.441958372218142 ], [ 34.763098099278849, 31.442302633556746 ], [ 34.763980575269102, 31.442564514606399 ], [ 34.764883882670276, 31.4427416622751 ], [ 34.765799904952281, 31.442832484829648 ], [ 34.76672041133741, 31.442836166197903 ], [ 34.767637130756746, 31.442752673301506 ], [ 34.768541826168573, 31.442582756353062 ], [ 35.259057110992607, 31.32614371334974 ], [ 35.259839435802547, 31.325923039170345 ], [ 35.260600564713314, 31.325637711318759 ], [ 35.261335164916304, 31.325289728929164 ], [ 35.284850220812622, 31.312920103306023 ], [ 35.285742946027923, 31.312387644249782 ], [ 35.286573644656563, 31.311762815677312 ], [ 35.287332799023602, 31.311052776520917 ], [ 35.288011711167762, 31.310265662007577 ], [ 35.290877750607351, 31.306558902067295 ], [ 35.291153766466273, 31.306183654403366 ], [ 35.29133549710761, 31.305923751705734 ], [ 35.291863976716549, 31.305078683621336 ], [ 35.292303051342941, 31.304183896363501 ], [ 35.292623026618294, 31.303437182545188 ], [ 35.292987237098821, 31.302439879911471 ], [ 35.29324039615539, 31.301408777438667 ], [ 35.293379477623439, 31.300356200523382 ], [ 35.29489240771575, 31.280664361393498 ], [ 35.294920643749464, 31.279844234550612 ], [ 35.294879537154934, 31.279024651998391 ], [ 35.250483922459352, 30.799805699479748 ], [ 35.250354776105375, 30.798889497829453 ], [ 35.250139019643377, 30.797989745978189 ], [ 35.249838611759003, 30.797114612075433 ], [ 35.249456279622521, 30.796272040783396 ], [ 35.248995494130988, 30.795469681153591 ], [ 35.248460438398624, 30.794714817187032 ], [ 35.247855969781597, 30.794014301708419 ], [ 35.24718757578183, 30.793374494154669 ], [ 35.246461324230253, 30.792801202842529 ], [ 35.24587447268906, 30.79238173351769 ], [ 35.245616867169609, 30.792203805916028 ], [ 35.244388464538005, 30.791384280784332 ], [ 35.243302653150977, 30.790757197162364 ], [ 35.237699206428509, 30.787987079511808 ], [ 35.237268798234538, 30.787787237045791 ], [ 35.236282157017655, 30.787358114133625 ], [ 35.235830684831562, 30.787175079306465 ], [ 34.789751089898004, 30.619227539844786 ] ] ] } }
]
}
